[{"OBJECT_NAME":"GLOBALSTAR M096","OBJECT_ID":"2013-005D","EPOCH":"2026-03-09T22:21:33.576768","MEAN_MOTION":12.62263678,"ECCENTRICITY":7.446e-5,"INCLINATION":52.0067,"RA_OF_ASC_NODE":141.7261,"ARG_OF_PERICENTER":114.904,"MEAN_ANOMALY":245.1904,"EPHEMERIS_TYPE":0,"CLASSIFICATION_TYPE":"U","NORAD_CAT_ID":39075,"ELEMENT_SET_NO":999,"REV_AT_EPOCH":60485,"BSTAR":0.00011478221,"MEAN_MOTION_DOT":-8.3e-7,"MEAN_MOTION_DDOT":0},{"OBJECT_NAME":"THORAD DELTA 1 DEB","OBJECT_ID":"1974-089F","EPOCH":"2026-03-09T06:31:46.124832","MEAN_MOTION":12.71158755,"ECCENTRICITY":0.0091259,"INCLINATION":101.2079,"RA_OF_ASC_NODE":4.8542,"ARG_OF_PERICENTER":17.9267,"MEAN_ANOMALY":139.1187,"EPHEMERIS_TYPE":0,"CLASSIFICATION_TYPE":"U","NORAD_CAT_ID":8137,"ELEMENT_SET_NO":999,"REV_AT_EPOCH":37803,"BSTAR":0.0006780695,"MEAN_MOTION_DOT":9.5e-7,"MEAN_MOTION_DDOT":0}]
